SAR-LUPE 2              
1 31797U 07030A   26182.21641899  .00041957  00000+0  69153-3 0  9998
2 31797  98.1063 288.4108 0002775 203.7967 156.3156 15.52198248 59110
SAPPHIRE                
1 39088U 13009C   26182.17454947  .00000105  00000+0  51726-4 0  9991
2 39088  98.4266   1.2984 0010698 201.6233 158.4502 14.35244407698585
PRAETORIAN SDA_602      
1 65565U 25203A   26182.19222852  .00000090  00000+0  70648-4 0  9996
2 65565  81.3031 357.7980 0006575 150.7343 209.4183 13.83886746 40634
PRAETORIAN SDA_603      
1 65566U 25203B   26182.00431647  .00000176  00000+0  14745-3 0  9991
2 65566  81.3039 357.8947 0010073 150.6269 209.5456 13.83906986 40612
PRAETORIAN SDA_604      
1 65567U 25203C   26181.96024729  .00000067  00000+0  49983-4 0  9997
2 65567  81.3053 358.3684 0006023 154.8633 205.2818 13.83048992 40589
PRAETORIAN SDA_605      
1 65568U 25203D   26181.99406142  .00000021  00000+0  86637-5 0  9992
2 65568  81.3019 357.9868 0008809 146.6894 213.4818 13.83435040 40601
PRAETORIAN SDA_606      
1 65569U 25203E   26181.97898824  .00000045  00000+0  30413-4 0  9999
2 65569  81.3055 358.2329 0006683 149.6121 210.5423 13.83198981 40590
PRAETORIAN SDA_607      
1 65570U 25203F   26182.19301332  .00000237  00000+0  20131-3 0  9997
2 65570  81.3040 357.6716 0009416 150.3693 209.7999 13.84286875 40644
PRAETORIAN SDA_608      
1 65571U 25203G   26181.95822928  .00000083  00000+0  63995-4 0  9995
2 65571  81.3008 358.0568 0006537 154.1283 206.0201 13.83818249 40592
PRAETORIAN SDA_609      
1 65572U 25203H   26181.95923756  .00000123  00000+0  99422-4 0  9996
2 65572  81.3050 358.0365 0007417 148.9775 211.1821 13.84210315 40608
PRAETORIAN SDA_610      
1 65573U 25203J   26182.01075825  .00000069  00000+0  51606-4 0  9991
2 65573  81.3009 357.9674 0007287 153.4956 206.6574 13.83768981 40601
PRAETORIAN SDA_611      
1 65574U 25203K   26182.01613846 -.00000048  00000+0 -54650-4 0  9994
2 65574  81.3011 358.1374 0006018 157.4491 202.6930 13.83310448 40595
PRAETORIAN SDA_612      
1 65575U 25203L   26181.98849507  .00000074  00000+0  54651-4 0  9993
2 65575  81.3032 357.7159 0009840 149.9937 210.1786 13.85040794 40625
PRAETORIAN SDA_613      
1 65576U 25203M   26182.02832013  .00000060  00000+0  43885-4 0  9996
2 65576  81.3000 358.1342 0006302 147.8043 212.3499 13.82766399 40599
PRAETORIAN SDA_614      
1 65577U 25203N   26182.19703719  .00000035  00000+0  20108-4 0  9990
2 65577  81.3014 357.6036 0007768 146.8824 213.2821 13.84778257 40656
PRAETORIAN SDA_615      
1 65578U 25203P   26182.17737617  .00000123  00000+0  99496-4 0  9997
2 65578  81.3026 357.5947 0009611 148.2573 211.9165 13.84437240 40645
PRAETORIAN SDA_616      
1 65579U 25203Q   26181.94343337  .00000225  00000+0  19417-3 0  9991
2 65579  81.3066 358.3597 0005964 155.8507 204.2930 13.83269676 40581
PRAETORIAN SDA_617      
1 65580U 25203R   26182.18322569  .00000063  00000+0  47065-4 0  9995
2 65580  81.3038 357.9676 0008017 147.3156 212.8498 13.83151138 40625
PRAETORIAN SDA_618      
1 65581U 25203S   26181.99800251  .00000160  00000+0  13228-3 0  9994
2 65581  81.3012 357.6873 0010313 151.9288 208.2426 13.84225267 40629
PRAETORIAN SDA_619      
1 65582U 25203T   26182.18572179  .00000105  00000+0  83871-4 0  9993
2 65582  81.3045 357.8304 0008777 148.5707 211.5976 13.83807261 41263
PRAETORIAN SDA_620      
1 65583U 25203U   26181.99866432  .00000142  00000+0  11760-3 0  9998
2 65583  81.3033 358.0264 0008262 144.9072 215.2630 13.83620071 40600
PRAETORIAN SDA_621      
1 65584U 25203V   26182.18753697  .00000061  00000+0  44642-4 0  9995
2 65584  81.3021 357.7641 0008085 142.4342 217.7381 13.83802634 40639
PRAETORIAN SDA_601      
1 65585U 25203W   26181.94756404  .00000124  00000+0  10244-3 0  9998
2 65585  81.3041 358.2984 0006018 158.6343 201.5066 13.83169220 40584
VICTUS HAZE PUMA        
1 69646U 26142A   26182.16504378  .00004046  00000+0  18596-3 0  9994
2 69646  97.4473  79.6282 0020939 276.5082  83.3769 15.20754232  1798
